IRIDIUM 63              
1 25286U 98021B   26015.47487869  .00000298  00000+0  94442-4 0  9995
2 25286  86.3997 353.0560 0002027  83.3533 276.7895 14.36767824454325
IRIDIUM 69              
1 25319U 98026A   26015.45750170  .00000266  00000+0  76046-4 0  9998
2 25319  86.3978   5.6797 0004260  64.6433 295.5208 14.41249616453635
IRIDIUM 71              
1 25320U 98026B   26015.51145468  .00000225  00000+0  63324-4 0  9995
2 25320  86.3982   0.3278 0004246  97.6628 262.5054 14.41342395454175
IRIDIUM 73              
1 25344U 98032C   26015.75345837  .00000403  00000+0  94527-4 0  9993
2 25344  86.4435 316.5365 0002368  69.0021 291.1438 14.52043844461404
IRIDIUM 82              
1 25467U 98051A   26015.38745732  .00032556  00000+0  54460-3 0  9992
2 25467  86.3594   4.1212 0056401 197.7664 162.1625 15.49891544456601
